NORAD_CAT_ID,OBJECT_NAME,OBJECT_TYPE,EPOCH,MEAN_MOTION,ECCENTRICITY,INCLINATION,RA_OF_ASC_NODE,ARG_OF_PERICENTER,MEAN_ANOMALY,BSTAR,MEAN_MOTION_DOT,MEAN_MOTION_DDOT,TLE_LINE0,TLE_LINE1,TLE_LINE2,SEMIMAJOR_AXIS,PERIOD,APOGEE,PERIGEE,DECAYED
53561.0,STARLINK-4563,PAYLOAD,2024-07-20 18:12:32,15.08838056,0.0001556,53.2173,223.8527,95.1581,264.9589,1.8278e-05,3e-08,0.0,0 STARLINK-4563,1 53561U 22101AL  24202.75870619  .00000003  00000-0  18278-4 0  9992,2 53561  53.2173 223.8527 0001556  95.1581 264.9589 15.08838056106192,6917.886,95.438,540.828,538.675,0.0
53561.0,STARLINK-4563,PAYLOAD,2024-07-21 06:55:37,15.08837352,0.0001484,53.2167,221.4721,95.176,264.9402,0.0001053,1.388e-05,0.0,0 STARLINK-4563,1 53561U 22101AL  24203.28862560  .00001388  00000-0  10530-3 0  9996,2 53561  53.2167 221.4721 0001484  95.1760 264.9402 15.08837352106275,6917.888,95.438,540.78,538.727,0.0
53561.0,STARLINK-4563,PAYLOAD,2024-07-22 05:11:01,15.08839038,0.0001428,53.2162,217.308,87.6521,272.4635,0.00015125,2.12e-05,0.0,0 STARLINK-4563,1 53561U 22101AL  24204.21598548  .00002120  00000-0  15125-3 0  9992,2 53561  53.2162 217.3080 0001428  87.6521 272.4635 15.08839038106412,6917.883,95.438,540.736,538.76,0.0
53561.0,STARLINK-4563,PAYLOAD,2024-07-22 09:57:10,15.08841184,0.0001407,53.2159,216.4154,86.077,274.0383,0.00010973,1.459e-05,0.0,0 STARLINK-4563,1 53561U 22101AL  24204.41470544  .00001459  00000-0  10973-3 0  9999,2 53561  53.2159 216.4154 0001407  86.0770 274.0383 15.08841184106442,6917.877,95.437,540.715,538.768,0.0
53561.0,STARLINK-4563,PAYLOAD,2024-07-23 08:12:34,15.08844093,0.0001361,53.2154,212.2517,90.8501,269.2647,8.5406e-05,1.072e-05,0.0,0 STARLINK-4563,1 53561U 22101AL  24205.34206376  .00001072  00000-0  85406-4 0  9997,2 53561  53.2154 212.2517 0001361  90.8501 269.2647 15.08844093106584,6917.868,95.437,540.674,538.791,0.0
53561.0,STARLINK-4563,PAYLOAD,2024-07-24 09:38:44,15.08841206,0.00014,53.2155,207.4943,88.1105,272.0047,4.913e-05,4.94e-06,0.0,0 STARLINK-4563,1 53561U 22101AL  24206.40190523  .00000494  00000-0  49130-4 0  9992,2 53561  53.2155 207.4943 0001400  88.1105 272.0047 15.08841206106745,6917.877,95.437,540.71,538.773,0.0
53561.0,STARLINK-4563,PAYLOAD,2024-07-25 06:18:45,15.08842263,0.0001454,53.2156,203.6289,84.071,276.0448,7.0503e-05,8.34e-06,0.0,0 STARLINK-4563,1 53561U 22101AL  24207.26302379  .00000834  00000-0  70503-4 0  9997,2 53561  53.2156 203.6289 0001454  84.0710 276.0448 15.08842263106870,6917.873,95.437,540.744,538.733,0.0
53561.0,STARLINK-4563,PAYLOAD,2024-07-26 04:34:09,15.08838003,0.0001468,53.2158,199.4654,90.6884,269.4276,5.4992e-05,5.87e-06,0.0,0 STARLINK-4563,1 53561U 22101AL  24208.19038557  .00000587  00000-0  54992-4 0  9993,2 53561  53.2158 199.4654 0001468  90.6884 269.4276 15.08838003107019,6917.886,95.438,540.767,538.736,0.0
53561.0,STARLINK-4563,PAYLOAD,2024-07-26 06:09:32,15.08838233,0.0001469,53.2158,199.168,90.4689,269.6471,5.5363e-05,5.93e-06,0.0,0 STARLINK-4563,1 53561U 22101AL  24208.25662547  .00000593  00000-0  55363-4 0  9992,2 53561  53.2158 199.1680 0001469  90.4689 269.6471 15.08838233107022,6917.886,95.438,540.767,538.735,0.0
53561.0,STARLINK-4563,PAYLOAD,2024-07-27 04:24:56,15.08840957,0.0001461,53.2157,195.0044,91.7135,268.4024,4.1777e-05,3.77e-06,0.0,0 STARLINK-4563,1 53561U 22101AL  24209.18398401  .00000377  00000-0  41777-4 0  9994,2 53561  53.2157 195.0044 0001461  91.7135 268.4024 15.08840957107164,6917.877,95.437,540.753,538.732,0.0
53561.0,STARLINK-4563,PAYLOAD,2024-07-27 21:54:10,15.08838111,0.0001462,53.2159,191.7338,91.4119,268.704,5.3129e-05,5.58e-06,0.0,0 STARLINK-4563,1 53561U 22101AL  24209.91262571  .00000558  00000-0  53129-4 0  9998,2 53561  53.2159 191.7338 0001462  91.4119 268.7040 15.08838111107277,6917.886,95.438,540.763,538.74,0.0
53561.0,STARLINK-4563,PAYLOAD,2024-07-28 05:51:06,15.08836365,0.0001283,53.2145,190.2451,88.0911,272.0228,2.6865e-05,1.4e-06,0.0,0 STARLINK-4563,1 53561U 22101AL  24210.24382829  .00000140  00000-0  26865-4 0  9999,2 53561  53.2145 190.2451 0001283  88.0911 272.0228 15.08836365107326,6917.891,95.438,540.644,538.869,0.0
53561.0,STARLINK-4563,PAYLOAD,2024-07-28 09:01:53,15.08835193,0.0001291,53.2148,189.651,87.7462,272.3678,1.6449e-05,-2.6e-07,0.0,0 STARLINK-4563,1 53561U 22101AL  24210.37630973 -.00000026  00000-0  16449-4 0  9990,2 53561  53.2148 189.6510 0001291  87.7462 272.3678 15.08835193107345,6917.895,95.438,540.653,538.867,0.0
53561.0,STARLINK-4563,PAYLOAD,2024-07-29 05:41:54,15.08835354,0.000123,53.2149,185.7852,91.1009,269.0124,3.4949e-05,2.68e-06,0.0,0 STARLINK-4563,1 53561U 22101AL  24211.23743192  .00000268  00000-0  34949-4 0  9996,2 53561  53.2149 185.7852 0001230  91.1009 269.0124 15.08835354107473,6917.895,95.438,540.61,538.909,0.0
53561.0,STARLINK-4563,PAYLOAD,2024-07-29 15:14:12,15.08839752,0.0001241,53.2151,184.0007,85.581,274.5324,6.9504e-05,8.18e-06,0.0,0 STARLINK-4563,1 53561U 22101AL  24211.63486930  .00000818  00000-0  69504-4 0  9990,2 53561  53.2151 184.0007 0001241  85.5810 274.5324 15.08839752107535,6917.881,95.438,540.605,538.888,0.0
53561.0,STARLINK-4563,PAYLOAD,2024-07-30 03:57:18,15.08832335,0.0001358,53.2155,181.6224,86.6379,273.4769,5.0996e-05,5.24e-06,0.0,0 STARLINK-4563,1 53561U 22101AL  24212.16479674  .00000524  00000-0  50996-4 0  9995,2 53561  53.2155 181.6224 0001358  86.6379 273.4769 15.08832335107614,6917.904,95.438,540.708,538.829,0.0
53561.0,STARLINK-4563,PAYLOAD,2024-07-30 05:32:41,15.08833935,0.0001373,53.2157,181.3252,86.6438,273.4711,6.3896e-05,7.29e-06,0.0,0 STARLINK-4563,1 53561U 22101AL  24212.23103571  .00000729  00000-0  63896-4 0  9993,2 53561  53.2157 181.3252 0001373  86.6438 273.4711 15.08833935107622,6917.899,95.438,540.714,538.814,0.0
53561.0,STARLINK-4563,PAYLOAD,2024-07-30 15:04:59,15.08847056,0.0001483,53.2165,179.5414,83.8079,276.3083,0.00014529,2.026e-05,0.0,0 STARLINK-4563,1 53561U 22101AL  24212.62846563  .00002026  00000-0  14529-3 0  9991,2 53561  53.2165 179.5414 0001483  83.8079 276.3083 15.08847056107681,6917.859,95.437,540.75,538.698,0.0
53561.0,STARLINK-4563,PAYLOAD,2024-07-31 05:23:27,15.08846338,0.0001448,53.2164,176.8641,85.0923,275.0235,9.5059e-05,1.225e-05,0.0,0 STARLINK-4563,1 53561U 22101AL  24213.22462690  .00001225  00000-0  95059-4 0  9991,2 53561  53.2164 176.8641 0001448  85.0923 275.0235 15.08846338107772,6917.861,95.437,540.728,538.724,0.0
53561.0,STARLINK-4563,PAYLOAD,2024-07-31 21:17:20,15.08826735,0.0001553,53.2172,173.8902,96.7801,263.3368,-2.701e-05,-7.18e-06,0.0,0 STARLINK-4563,1 53561U 22101AL  24213.88704086 -.00000718  00000-0 -27010-4 0  9991,2 53561  53.2172 173.8902 0001553  96.7801 263.3368 15.08826735107876,6917.921,95.438,540.86,538.712,0.0
53561.0,STARLINK-4563,PAYLOAD,2024-08-01 03:38:52,15.08833123,0.0001517,53.2166,172.7013,100.7489,259.3674,2.3158e-05,8.1e-07,0.0,0 STARLINK-4563,1 53561U 22101AL  24214.15199622  .00000081  00000-0  23158-4 0  9996,2 53561  53.2166 172.7013 0001517 100.7489 259.3674 15.08833123107917,6917.901,95.438,540.816,538.717,0.0
53561.0,STARLINK-4563,PAYLOAD,2024-08-02 03:29:39,15.08839803,0.0001226,53.216,168.2441,90.919,269.1942,3.544e-05,2.76e-06,0.0,0 STARLINK-4563,1 53561U 22101AL  24215.14559109  .00000276  00000-0  35440-4 0  9999,2 53561  53.2160 168.2441 0001226  90.9190 269.1942 15.08839803108067,6917.881,95.438,540.594,538.898,0.0
53561.0,STARLINK-4563,PAYLOAD,2024-08-02 06:40:25,15.08845056,0.000124,53.2157,167.6465,98.4902,261.623,1.6668e-06,-2.61e-06,0.0,0 STARLINK-4563,1 53561U 22101AL  24215.27806908 -.00000261  00000-0  16668-5 0  9992,2 53561  53.2157 167.6465 0001240  98.4902 261.6230 15.08845056108088,6917.865,95.437,540.588,538.872,0.0
53561.0,STARLINK-4563,PAYLOAD,2024-08-03 03:20:26,15.08829645,0.0001355,53.2146,163.7819,92.0368,268.0779,7.312e-05,8.76e-06,0.0,0 STARLINK-4563,1 53561U 22101AL  24216.13919909  .00000876  00000-0  73120-4 0  9990,2 53561  53.2146 163.7819 0001355  92.0368 268.0779 15.08829645108219,6917.912,95.438,540.714,538.84,0.0
53561.0,STARLINK-4563,PAYLOAD,2024-08-03 06:31:12,15.08835671,0.0001364,53.2143,163.1858,94.4805,265.6343,4.8807e-05,4.89e-06,0.0,0 STARLINK-4563,1 53561U 22101AL  24216.27167712  .00000489  00000-0  48807-4 0  9996,2 53561  53.2143 163.1858 0001364  94.4805 265.6343 15.08835671108233,6917.894,95.438,540.702,538.815,0.0
53561.0,STARLINK-4563,PAYLOAD,2024-08-04 03:11:13,15.08838687,0.0001251,53.2154,159.3197,89.9911,270.1225,7.4078e-05,8.91e-06,0.0,0 STARLINK-4563,1 53561U 22101AL  24217.13279627  .00000891  00000-0  74078-4 0  9997,2 53561  53.2154 159.3197 0001251  89.9911 270.1225 15.08838687108364,6917.884,95.438,540.615,538.884,0.0
53561.0,STARLINK-4563,PAYLOAD,2024-08-04 12:43:31,15.08851678,0.0001246,53.2162,157.5345,91.5716,268.5419,0.00021916,3.203e-05,0.0,0 STARLINK-4563,1 53561U 22101AL  24217.53022375  .00003203  00000-0  21916-3 0  9999,2 53561  53.2162 157.5345 0001246  91.5716 268.5419 15.08851678108422,6917.845,95.437,540.572,538.848,0.0
53561.0,STARLINK-4563,PAYLOAD,2024-08-04 20:40:28,15.08838181,0.0002103,53.2157,156.0481,76.6574,283.4652,8.5326e-05,1.07e-05,0.0,0 STARLINK-4563,1 53561U 22101AL  24217.86143968  .00001070  00000-0  85326-4 0  9993,2 53561  53.2157 156.0481 0002103  76.6574 283.4652 15.08838181108474,6917.886,95.438,541.206,538.296,0.0
53561.0,STARLINK-4563,PAYLOAD,2024-08-05 03:01:59,15.08851291,0.0001444,53.2158,154.8591,84.5042,275.6115,0.00019067,2.749e-05,0.0,0 STARLINK-4563,1 53561U 22101AL  24218.12638793  .00002749  00000-0  19067-3 0  9990,2 53561  53.2158 154.8591 0001444  84.5042 275.6115 15.08851291108517,6917.846,95.437,540.71,538.712,0.0
53561.0,STARLINK-4563,PAYLOAD,2024-08-05 12:34:18,15.08846177,0.0001136,53.2162,153.0756,66.5308,293.5803,0.00011401,1.527e-05,0.0,0 STARLINK-4563,1 53561U 22101AL  24218.52382954  .00001527  00000-0  11401-3 0  9996,2 53561  53.2162 153.0756 0001136  66.5308 293.5803 15.08846177108575,6917.862,95.437,540.512,538.941,0.0
